#dP2022  7 19  0  0  0.00000000      96 __u+U ITR00 FIT  IAC
## 2219 172800.00000000   900.00000000 59779 0.0000000000000
+  116   C06C07C08C09C10C11C12C13C14C16C19C20C21C22C23C24C25
+        C26C27C28C29C30C32C33C34C35C36C37C38C39C40C41C42C43
+        C44C45C46E01E02E03E04E05E07E08E09E10E11E12E13E14E15
+        E18E19E21E24E25E26E27E30E31E33E34E36G01G02G03G04G05
+        G06G07G08G09G10G11G12G13G14G15G16G17G18G19G20G21G22
+        G23G24G25G26G27G28G29G30G31G32J02J03R01R02R03R04R05
+        R07R08R09R11R12R13R14R15R17R18R19R20R21R24  0  0  0
++         8  8  8  8  7  6  6  7  7  9  7  7  7  6  8  7  7
++         5  8  9  7  7  8  7  7  6  7  7  9  7  9  8  6  8
++         7  7  6  6  6  6  6  5  6  7  6  5  5  7  6  6  5
++         5  5  6  6  6  5  4  7  5  5  6  6  6  6  6  5  6
++         5  4  6  6  5  5  6  7  6  6  7  5  4  6  6  6  6
++         6  5  6  6  6  6  6  6  6  6  7  7  7  6  5  7  7
++         6  8  7  8  5  6  5  6  7  6  7  8  6  6  0  0  0
%c M  cc GPS ccc cccc cccc cccc cccc ccccc ccccc ccccc ccccc
%c cc cc ccc ccc cccc cccc cccc cccc ccccc ccccc ccccc ccccc
%f  0.0000000  0.000000000  0.00000000000  0.000000000000000
%f  0.0000000  0.000000000  0.00000000000  0.000000000000000
%i    0    0    0    0      0      0      0      0         0
%i    0    0    0    0      0      0      0      0         0
/* INFORMATION & ANALYSIS CENTER (IAC)      ULTRA-RAPID DATA
/* S/V CLOCKS ARE ALIGNED TO GNSS TIME                      
/* G:C1WC2W R:C1PC2P E:C1XC5X C:C2IC6I J:C1CC2S             
/* PCV:IGS14_2215 OL/AL:FES2004  NONE     YN ORB:CoN CLK:CoN
*  2022 07 19  4 15  0.00000000
PC06 -13593.813358  24156.102198 -31809.422522    424.288959
PC07 -11909.894298  40298.457638   1927.296404   -448.297681
PC08   2659.227693  30897.448985  28631.153868    409.634658
PC09  -5563.752910  24299.068785 -33683.938130   -923.315032
PC10  -6549.958529  40664.298432   7886.980148    117.167480
PC11 -15738.567036 -11110.675494 -20116.515148    483.029929
PC12   4434.508276 -15752.599668 -22577.580227   -573.653970
PC13   6471.092285  33507.975438  25062.250456     28.042845
PC14  -8051.473697 -17903.855928  19874.767998    547.827467
PC16 -16450.753820  23224.947826 -30988.848822    143.237593
PC19  13649.059209   8281.944319 -22862.876739   -240.504260
PC20   2372.496596  23408.461009 -14968.342286   -963.952708
PC21  11156.485531 -25471.867385  -2493.515815    -11.286513
PC22  17566.513911 -12290.189361 -17881.875760   -962.923598
PC23 -18647.326096    876.974815 -20729.946180   -947.572681
PC24 -10651.106962 -23868.945589   9746.400191   -967.713890
PC25 -21640.899186 -15257.706284  -8783.732347   -705.560000
PC26   4115.017494 -18072.175336  20844.913962    707.517805
PC27 -14041.295036  15296.300596  18625.357957    756.406782
PC28 -26615.435840   7221.444401   4242.473442     91.621882
PC29  23958.739286   4768.421861  13482.396718    583.591007
PC30   6575.778740  14786.531014  22722.637312    501.217319
PC32 -11014.537663  25501.250084   2599.278010   -972.271117
PC33 -13676.264169  -8358.008266  22848.464632   -199.745125
PC34  -7800.746214 -14495.568410 -22550.772034   -355.683047
PC35  26699.638399  -7451.767911  -3093.592340    372.363110
PC36  21191.247686  16153.188971   8324.854583   -972.528184
PC37  -5559.634023  17181.934323 -21257.446491   -918.713611
PC38  -5087.634749  27431.244335  31667.144576     11.094229
PC39 -21819.778459  23135.939683 -27748.216560     -0.105116
PC40 -18550.672972  37718.337957   -863.303689     -0.828566
PC41 -17600.179991  11771.567697  18223.944874    -92.332519
PC42  -1656.846458 -24029.878568  14153.439578   -953.135745
PC43 -23530.246697  -5405.971433 -14022.674481      3.715903
PC44  13614.169314 -15878.324764 -18475.651808    728.624504
PC45  18416.013953  -1137.869138  20950.089422    812.608226
PC46  11985.914041  23803.144708  -8325.303769   -439.582696
PE01  -3287.636988 -29319.019309   2409.594656   -517.902919
PE02   3417.904751  29323.633917  -2223.200581    312.851936
PE03  -3266.546865  21335.184340 -20249.468395   -580.465779
PE04 -15090.659636  -9192.278873  23755.808153  -1074.512647
PE05 -20110.039007  21191.055564  -4747.905909   -161.645781
PE07  24988.262894  -8744.933908 -13244.629285   -688.795566
PE08  15180.262914   8871.079660 -23810.953929   -566.106052
PE09 -24900.606212   8850.877166  13322.738440   -592.568142
PE10 -28093.317118  -9242.538070   1108.982424   -501.510070
PE11 -27325.794484  -2148.702870  11169.241939   2958.820806
PE12 -24320.302434 -14619.528992  -8458.580685    -69.567035
PE13  27529.428157   2621.581875 -10559.173202    429.876161
PE14  10503.040461 -24339.189260 -18809.890573  -1774.938917
PE15  24266.106623  14594.145699   8618.028314    732.374349
PE18  -6882.813431  17391.585443  14098.137057  -1197.419372
PE19   5862.082931 -22013.776340  18908.736980  -5053.323997
PE21   8759.017075 -21750.016402  18072.355155   -746.733255
PE24 -16893.573493    -93.701376 -24311.869096   -732.716991
PE25  -8916.171663  21527.141146 -18244.549834   -581.552556
PE26  13795.467961 -11423.752315 -23572.376273  -1393.544025
PE27  16682.609352  -1234.756470  24427.753791   -348.096795
PE30  14329.531658  20638.161154  15652.694201   -683.826442
PE31 -14706.017702 -19817.302829 -16334.842444   -500.160520
PE33  -6707.704342 -17895.635145 -22609.503238   -454.577553
PE34   6963.591348  17900.982007  22511.283317   -486.562287
PE36 -14617.695505  10779.313239  23367.680665   -404.216210
PG01 -22065.839435 -14514.194829  -4528.471391    318.650381
PG02   5396.926298  17123.174376  20175.059067   -651.142454
PG03 -12252.394845 -16958.644711  16309.355571   -310.864762
PG04 -15180.363694  -7402.110907  20528.511452   -144.185130
PG05   6232.861918  25309.623168  -4863.924582    -89.661467
PG06 -10953.683397  10636.244113  21803.154469    390.807602
PG07 -24403.939505  -4246.493876  -9815.469317    318.745862
PG08  -8163.965452 -12810.336947 -21817.495237    -76.801080
PG09 -22065.469878   3016.790477  14432.982154   -317.588304
PG10  11782.215789 -14238.703890 -18812.052951   -496.972949
PG11   2336.987031  17266.331457  20048.289178    -10.528286
PG12   9835.241484  19915.726179  14377.116801   -248.638112
PG13  -2650.047695  16923.151834 -20407.119823    351.196438
PG14 -13301.469804  12542.161185 -19227.092520   -111.637930
PG15   9982.009789  12596.113298 -21560.156362    -44.292268
PG16    514.512965 -26303.122648    -45.953340   -516.134588
PG17 -22718.412959  13811.475046    612.558347    638.505026
PG18  23999.885276   4027.485460 -10800.631749    108.994312
PG19 -18695.741661  16457.838198   8625.063853    185.606493
PG20     21.719446  25477.072953   7915.728577    502.035054
PG21 -17404.120257 -15974.855156 -12183.896603    161.045445
PG22  15899.298594 -18057.504062  11471.044377    294.784330
PG23  14806.483730  -2786.358341 -21881.265453    -33.538291
PG24  20538.191547  14978.030090  -8703.370759    193.180930
PG25  15091.162180   6585.069515  20607.259017    350.820988
PG26   4872.129002 -23647.015624  10623.661629    219.014657
PG27   5327.837709 -18610.241205 -18221.234171    220.857921
PG28  -9430.576041  20990.404797 -12954.368178    335.577745
PG29  22260.792961  -1556.598067  14413.269071   -534.880854
PG30 -19284.689764   4796.628756 -17649.961593   -534.293900
PG31   9157.364504 -12417.173353  21512.609323   -186.308995
PG32  20758.804624 -16247.334252   2382.818678   -180.064354
PJ02 -20545.780476  26436.479062 -20999.471104     -1.872163
PJ03 -28212.928583  25818.313808  22698.077059     -0.179048
PR01  11196.603078 -22745.174017   2895.609863     11.716918
PR02   -677.645133 -16531.149302  19433.745226    524.553292
PR03 -11821.340851  -1075.270279  22628.750801     60.457805
PR04 -16080.466476  14693.606368  13309.352512    151.133487
PR05 -11724.759009  22416.094386  -3355.779803     96.463096
PR07  12102.871019    399.936970 -22405.025273     38.062167
PR08  16043.510281 -14859.560702 -13053.926975    -66.272861
PR09  12235.208679  22276.496846  -1591.255659     66.540606
PR11  10998.376758  -2655.069744  22874.530560     32.891996
PR12   -878.179877 -18519.041142  17544.495717     19.369375
PR13 -11494.232785 -22571.710326   3022.623071    -24.760938
PR14 -15925.779810 -13233.255204 -14894.366202     24.837758
PR15 -10658.867963   3483.162431 -22886.000509     94.614782
PR17 -23898.919866  -3999.990447  -7898.069914    544.747564
PR18 -23668.611846   3420.253939   8947.259548     33.433584
PR19 -12415.341968   8500.800923  20587.242390   -196.831992
PR20   9727.978145  10003.540274  21344.223055    -74.883825
PR21  24470.304007   3432.775521   6389.223324   -318.550565
PR24 -10698.613642 -10057.258051 -20842.996537    104.301143
EOF
